"","name","address","type","fullLocation","lat","lng"
"1","Po Nagar Cham Towers","Nha Trang","Religious","Po Nagar Cham Towers, Nha Trang",12.2387911,109.1967488
"2","Reunification Palace","Ho Chi Minh City","Architecture","Reunification Palace, Ho Chi Minh City",10.777021,106.6954139
"3","Jade Emperor Pagoda","Ho Chi Minh City","Religious","Jade Emperor Pagoda, Ho Chi Minh City",10.8230989,10.8184631
"4","War Remnants Museum","Ho Chi Minh City","Museums & Galleries","War Remnants Museum, Ho Chi Minh City",10.7794222,106.6920733
"5","Ho Chi Minh’s Mausoleum","Hanoi","Cemeteries, Memorials & Tombs","Ho Chi Minh’s Mausoleum, Hanoi",21.0365442,21.0356034
"6","Tan Ky House","Hoi An","Architecture","Tan Ky House, Hoi An",15.8800584,108.3380469
"7","Thien Mu Pagoda","Hue","Religious","Thien Mu Pagoda, Hue",16.4537395,107.544765
"8","Temple of Literature","Hanoi","Religious","Temple of Literature, Hanoi",21.0287611,105.8364349
"9","Japanese Covered Bridge","Hoi An","Architecture","Japanese Covered Bridge, Hoi An",15.8800584,108.3380469
"10","Fine Arts Museum","Ho Chi Minh City","Museums & Galleries","Fine Arts Museum, Ho Chi Minh City",10.7696684,NA
"11","Assembly Hall of the Fujian Chinese Congregation","Hoi An","Religious","Assembly Hall of the Fujian Chinese Congregation, Hoi An",15.8800584,NA
"12","Imperial Enclosure","Hue","Historic","Imperial Enclosure, Hue",16.4498,107.5623501
"13","Hoa Lo Prison Museum","Hanoi","Architecture","Hoa Lo Prison Museum, Hanoi",21.0277644,105.8341598
"14","Municipal Beach","Quy Nhon","Beaches, Islands & Waterfronts","Municipal Beach, Quy Nhon",13.7723959,13.7718755
"15","Vietnam Museum of Ethnology","Hanoi","Museums & Galleries","Vietnam Museum of Ethnology, Hanoi",21.0395559,105.798018
"16","To Mieu Temple Complex","Hue","Religious","To Mieu Temple Complex, Hue",16.4498,107.5623501
"17","Phuoc An Hoi Quan Pagoda","Ho Chi Minh City","Religious","Phuoc An Hoi Quan Pagoda, Ho Chi Minh City",10.8230989,10.8184631
"18","Museum of Cham Sculpture","Danang","Museums & Galleries","Museum of Cham Sculpture, Danang",16.0601257,108.2231185
"19","Nha Trang Beach","Nha Trang","Beaches, Islands & Waterfronts","Nha Trang Beach, Nha Trang",12.2363391,109.1978532
"20","History Museum","Ho Chi Minh City","Museums & Galleries","History Museum, Ho Chi Minh City",10.7879894,106.7048581
"21","Bac Ha Market","Bac Ha","Markets & Bazaars","Bac Ha Market, Bac Ha",NA,NA
"22","Mac Cuu Family Tombs","Ha Tien","Cemeteries, Memorials & Tombs","Mac Cuu Family Tombs, Ha Tien",NA,NA
"23","National Museum of Vietnamese History","Hanoi","Museums & Galleries","National Museum of Vietnamese History, Hanoi",21.0277644,NA
"24","Hoan Kiem Lake","Hanoi","Lakes, Rivers & Waterfalls","Hoan Kiem Lake, Hanoi",21.0286669,NA
"25","Vietnam Military History Museum","Hanoi","Museums & Galleries","Vietnam Military History Museum, Hanoi",21.0327913,NA
"26","Fine Arts Museum","Hanoi","Museums & Galleries","Fine Arts Museum, Hanoi",21.0303792,105.8370165
"27","Notre Dame Cathedral","Ho Chi Minh City","Religious","Notre Dame Cathedral, Ho Chi Minh City",10.7797858,106.6989938
"28","Bach Ma Temple","Hanoi","Religious","Bach Ma Temple, Hanoi",21.0277644,105.8341598
"29","Central Post Office","Ho Chi Minh City","Architecture","Central Post Office, Ho Chi Minh City",10.7794869,106.6999866
"30","Ho Chi Minh Mausoleum Complex","Hanoi","Historic","Ho Chi Minh Mausoleum Complex, Hanoi",21.0277644,105.8341598
"31","Bitexco Financial Tower","Ho Chi Minh City","Viewpoints & Observation Decks","Bitexco Financial Tower, Ho Chi Minh City",10.7718008,106.7044405
"32","Hai Ba Trung Temple","Hanoi","Religious","Hai Ba Trung Temple, Hanoi",21.0122871,105.8555386
"33","Dien Bien Phu Museum","Dien Bien Phu","Museums & Galleries","Dien Bien Phu Museum, Dien Bien Phu",NA,NA
"34","Vua Meo","Bac Ha","Architecture","Vua Meo, Bac Ha",14.058324,108.277199
"35","Binh Tay Market","Ho Chi Minh City","Markets & Bazaars","Binh Tay Market, Ho Chi Minh City",10.8230989,10.8184631
"36","Queen of the Rosary Cathedral","Haiphong","Religious","Queen of the Rosary Cathedral, Haiphong",20.8449115,NA
"37","Sapa Market","Sapa","Markets & Bazaars","Sapa Market, Sapa",NA,NA
"38","Bunker of Colonel de Castries","Dien Bien Phu","Military","Bunker of Colonel de Castries, Dien Bien Phu",NA,NA
"39","A1 Hill","Dien Bien Phu","Military","A1 Hill, Dien Bien Phu",11.3171655,11.3149037
"40","Haiphong Museum","Haiphong","Museums & Galleries","Haiphong Museum, Haiphong",20.9383645,106.802119
"41","Opera House","Haiphong","Architecture","Opera House, Haiphong",20.8449115,106.6880841
"42","Museum of the Vietnamese Revolution","Hanoi","Museums & Galleries","Museum of the Vietnamese Revolution, Hanoi",21.0252909,105.8592742
"43","Cao Dai Holy See","Tay Ninh","Religious","Cao Dai Holy See, Tay Ninh",11.3675415,106.1192802
"44","Historic Prisons","Con Dao Islands","Architecture","Historic Prisons, Con Dao Islands",NA,NA
"45","Temple of Lady Xu","Sam Mountain","Religious","Temple of Lady Xu, Sam Mountain",NA,NA
"46","Perfume Pagoda","Perfume Pagoda","Other","Perfume Pagoda, Perfume Pagoda",NA,NA
"47","Cat Ba National Park","Cat Ba Island","Parks & Gardens","Cat Ba National Park, Cat Ba Island",20.8,106.999722
"48","Nui Ba Den","Tay Ninh","Religious","Nui Ba Den, Tay Ninh",11.3816891,106.1757379
"49","Tomb of Tu Duc","Hue","Cemeteries, Memorials & Tombs","Tomb of Tu Duc, Hue",16.4329182,107.5654488
"50","Xa Loi Pagoda","Ho Chi Minh City","Religious","Xa Loi Pagoda, Ho Chi Minh City",10.8230989,10.8184631
"51","Khe Sanh Combat Base","Demilitarised Zone (Dmz)","Historic","Khe Sanh Combat Base, Demilitarised Zone (Dmz)",NA,NA
"52","Cha Tam Church","Ho Chi Minh City","Religious","Cha Tam Church, Ho Chi Minh City",10.8230989,10.8184631
"53","Po Ro Me Cham Tower","Phan Rang & Thap Cham","Religious","Po Ro Me Cham Tower, Phan Rang & Thap Cham",11.56269,108.994797
"54","Group B","My Son","Religious","Group B, My Son",15.7626486,15.765009
"55","Long Son Pagoda","Nha Trang","Religious","Long Son Pagoda, Nha Trang",12.2515206,109.1806335
"56","Po Klong Garai Cham Towers","Phan Rang & Thap Cham","Religious","Po Klong Garai Cham Towers, Phan Rang & Thap Cham",11.56269,108.994797
"57","Sand Dunes","Mui Ne","Beaches, Islands & Waterfronts","Sand Dunes, Mui Ne",10.9473855,108.29262
"58","Xeo Quyt Forest ","Rung Tram","Parks & Gardens","Xeo Quyt Forest , Rung Tram",14.058324,NA
"59","Tram Chim National Park","Tram Chim National Park","Parks & Gardens","Tram Chim National Park, Tram Chim National Park",10.725,NA
"60","Hang Nga Crazy House","Dalat","Architecture","Hang Nga Crazy House, Dalat",11.9404192,NA
"61","Le Van Duyet Temple","Ho Chi Minh City","Religious","Le Van Duyet Temple, Ho Chi Minh City",10.8230989,NA
"62","Tay Ho","Hanoi","Lakes, Rivers & Waterfalls","Tay Ho, Hanoi",NA,NA
"63","Citadel","Hue","Historic","Citadel, Hue",NA,NA
"64","Paradise Cave","Phong Nha-Ke Bang National Park","Natural Landmarks","Paradise Cave, Phong Nha-Ke Bang National Park",17.542593,106.23455
"65","Con Son Beaches & Other Islands Beaches","Con Dao Islands","Beaches, Islands & Waterfronts","Con Son Beaches & Other Islands Beaches, Con Dao Islands",NA,NA
"66","Lan Ha Bay","Cat Ba Island","Beaches, Islands & Waterfronts","Lan Ha Bay, Cat Ba Island",20.8,106.999722
"67","Minority Villages","Kon Tum","Neighbourhoods & Villages","Minority Villages, Kon Tum",14.3497403,108.0004606
"68","Clay Pagoda","Soc Trang","Religious","Clay Pagoda, Soc Trang",NA,NA
"69","Tomb of Minh Mang","Hue","Cemeteries, Memorials & Tombs","Tomb of Minh Mang, Hue",16.433385,107.5805401
"70","Giac Lam Pagoda","Ho Chi Minh City","Religious","Giac Lam Pagoda, Ho Chi Minh City",10.7768169,106.648603
"71","Khanh Van Nam Vien Pagoda","Ho Chi Minh City","Religious","Khanh Van Nam Vien Pagoda, Ho Chi Minh City",10.8230989,10.8184631
"72","Bidoup Nui Ba National Park ","South-West Highlands","Parks & Gardens","Bidoup Nui Ba National Park , South-West Highlands",NA,NA
"73","Monkey Island Eco Forest Park","Can Gio","Parks & Gardens","Monkey Island Eco Forest Park, Can Gio",NA,NA
"74","Phong Nha Caves & Boat Trip","Phong Nha-Ke Bang National Park","Natural Landmarks","Phong Nha Caves & Boat Trip, Phong Nha-Ke Bang National Park",NA,NA
"75","Bat Pagoda","Soc Trang","Religious","Bat Pagoda, Soc Trang",NA,NA
"76","Phung Son Pagoda","Ho Chi Minh City","Religious","Phung Son Pagoda, Ho Chi Minh City",NA,NA
"77","Long Beach","Phu Quoc Island","Beaches, Islands & Waterfronts","Long Beach, Phu Quoc Island",NA,NA
"78","Tran Family Chapel","Hoi An","Architecture","Tran Family Chapel, Hoi An",15.8800584,NA
"79","Quy Hoa Beach & Leper Hospital","Quy Nhon","Beaches, Islands & Waterfronts","Quy Hoa Beach & Leper Hospital, Quy Nhon",22.4826401,20.583333
"80","Alexandre Yersin Museum","Nha Trang","Museums & Galleries","Alexandre Yersin Museum, Nha Trang",12.2387911,109.1967488
"81","Ho Chi Minh’s Stilt House & the Presidential Palace","Hanoi","Other","Ho Chi Minh’s Stilt House & the Presidential Palace, Hanoi",NA,NA
"82","HCMC Museum","Ho Chi Minh City","Museums & Galleries","HCMC Museum, Ho Chi Minh City",10.8230989,10.8184631
"83","Cavern Pagoda","Sam Mountain","Religious","Cavern Pagoda, Sam Mountain",NA,NA
"84","Group A","My Son","Religious","Group A, My Son",15.7626486,108.1251502
"85","Giac Vien Pagoda","Ho Chi Minh City","Religious","Giac Vien Pagoda, Ho Chi Minh City",10.8230989,10.8184631
"86","Tiger Cages","Con Dao Islands","Architecture","Tiger Cages, Con Dao Islands",NA,NA
"87","Mariamman Hindu Temple","Ho Chi Minh City","Religious","Mariamman Hindu Temple, Ho Chi Minh City",10.7724397,106.6957479
"88","Thay Pagoda","Thay & Tay Phuong Pagodas","Religious","Thay Pagoda, Thay & Tay Phuong Pagodas",NA,NA
"89","Ho Chi Minh Museum","Ho Chi Minh City","Museums & Galleries","Ho Chi Minh Museum, Ho Chi Minh City",10.7682712,NA
"90","Vuc Quanh Outdoor War Museum","Dong Hoi & Around","Museums & Galleries","Vuc Quanh Outdoor War Museum, Dong Hoi & Around",21.0120181,NA
"91","Royal Tombs","Hue","Other","Royal Tombs, Hue",16.4498,NA
"92","Quan Cong Temple","Hoi An","Religious","Quan Cong Temple, Hoi An",15.8800584,NA
"93","Tomb of Khai Dinh","Hue","Cemeteries, Memorials & Tombs","Tomb of Khai Dinh, Hue",16.4170042,107.5842028
"94","Lat & Lang Dinh An Villages","Dalat & Around","Neighbourhoods & Villages","Lat & Lang Dinh An Villages, Dalat & Around",16.6582202,43.499052
"95","Tay An Pagoda","Sam Mountain","Religious","Tay An Pagoda, Sam Mountain",34.341568,108.940175
"96","Thien Hau Pagoda","Ho Chi Minh City","Religious","Thien Hau Pagoda, Ho Chi Minh City",10.8230989,10.8184631
"97","Ha Chuong Hoi Quan Pagoda","Ho Chi Minh City","Religious","Ha Chuong Hoi Quan Pagoda, Ho Chi Minh City",10.8230989,10.8184631
"98","Phu Dung Pagoda","Ha Tien","Religious","Phu Dung Pagoda, Ha Tien",20.8462693,20.0470145
"99","Bao Dai’s Summer Palace","Dalat","Architecture","Bao Dai’s Summer Palace, Dalat",11.9404192,108.4583132
"100","Vinh Moc Tunnels","Demilitarised Zone (Dmz)","Historic","Vinh Moc Tunnels, Demilitarised Zone (Dmz)",NA,NA
"101","Bac Lieu Bird Sanctuary","Around Bac Lieu","Parks & Gardens","Bac Lieu Bird Sanctuary, Around Bac Lieu",NA,NA
"102","Mine Action Visitor Centre","Dong Ha","Museums & Galleries","Mine Action Visitor Centre, Dong Ha",16.8515799,20.5424373
"103","An Thoi Islands","Phu Quoc Island","Beaches, Islands & Waterfronts","An Thoi Islands, Phu Quoc Island",10.289879,103.98402
"104","Ba Vi National Park","Ba Vi National Park","Parks & Gardens","Ba Vi National Park, Ba Vi National Park",21.0700041,21.0780556
"105","Phong Dien Floating Market","Around Can Tho","Markets & Bazaars","Phong Dien Floating Market, Around Can Tho",10.0451618,105.7468535
"106","Ba Om Pond & Ang Pagoda","Tra Vinh","Religious","Ba Om Pond & Ang Pagoda, Tra Vinh",NA,NA
"107","Kim Lien","Vinh","Other","Kim Lien, Vinh",16.1387556,108.1265614
"108","Tao Dan Park","Ho Chi Minh City","Parks & Gardens","Tao Dan Park, Ho Chi Minh City",10.7744581,106.6922155
"109","Tomb of Nguyen Sinh Sac","Cao Lanh","Parks & Gardens","Tomb of Nguyen Sinh Sac, Cao Lanh",10.2903676,10.2869936
"110","Ben Duoc Tunnels","Around Ho Chi Minh City","Other","Ben Duoc Tunnels, Around Ho Chi Minh City",NA,10.8184631
"111","Quan Am Pagoda","Ho Chi Minh City","Religious","Quan Am Pagoda, Ho Chi Minh City",10.8451429,106.7501836
"112","Ho Quyen","Around Hue","Other","Ho Quyen, Around Hue",16.4498,107.5623501
"113","Ben Dinh","Cu Chi","Historic","Ben Dinh, Cu Chi",NA,NA
"114","Fish Sauce Factory","Phu Quoc Island","Farms, Workshops & Factories","Fish Sauce Factory, Phu Quoc Island",10.289879,103.98402
"115","Tu Lan Caves","Phong Nha-Ke Bang National Park","Natural Landmarks","Tu Lan Caves, Phong Nha-Ke Bang National Park",NA,NA
"116","Can Cau Market","Bac Ha","Markets & Bazaars","Can Cau Market, Bac Ha",NA,NA
"117","Nguyen Trung Truc Temple","Rach Gia","Religious","Nguyen Trung Truc Temple, Rach Gia",NA,NA
"118","Cu Chi Tunnels","Cu Chi","Historic","Cu Chi Tunnels, Cu Chi",11.0459359,106.5133628
"119","Hon Chong Promontory","Nha Trang","Landmarks & Monuments","Hon Chong Promontory, Nha Trang",12.2387911,109.1967488
"120","Nguom Ngao Cave","Ban Gioc Waterfall & Nguom Ngao Cave","Natural Landmarks","Nguom Ngao Cave, Ban Gioc Waterfall & Nguom Ngao Cave",NA,NA
"121","Cai Rang Floating Market","Around Can Tho","Markets & Bazaars","Cai Rang Floating Market, Around Can Tho",10.0451618,105.7468535
"122","Hamburger Hill","Demilitarised Zone (Dmz)","Historic","Hamburger Hill, Demilitarised Zone (Dmz)",NA,NA
"123","Truong Son National Cemetery","Demilitarised Zone (Dmz)","Cemeteries, Memorials & Tombs","Truong Son National Cemetery, Demilitarised Zone (Dmz)",NA,NA
"124","Thuan An to Vinh HienThuan An Beach","Around Hue","Beaches, Islands & Waterfronts","Thuan An to Vinh HienThuan An Beach, Around Hue",16.4498,NA
"125","Sao, Dam & Vong Beaches","Phu Quoc Island","Beaches, Islands & Waterfronts","Sao, Dam & Vong Beaches, Phu Quoc Island",16.7146178,NA
"126","Ngoc Son Temple","Hanoi","Religious","Ngoc Son Temple, Hanoi",21.0306862,NA
"127","Tam Thanh and Nhi Thanh Caves","Lang Son","Other","Tam Thanh and Nhi Thanh Caves, Lang Son",NA,NA
"128","Phu Hai Prison","Con Dao Islands","Architecture","Phu Hai Prison, Con Dao Islands",NA,NA
"129","Hang Duong Cemetery","Con Dao Islands","Cemeteries, Memorials & Tombs","Hang Duong Cemetery, Con Dao Islands",NA,NA
"130","Lang Bian Mountain","Dalat","Parks & Gardens","Lang Bian Mountain, Dalat",11.9404192,108.4583132
"131","Mekong River Islands","Vinh Long","Beaches, Islands & Waterfronts","Mekong River Islands, Vinh Long",NA,NA
"132","Tam Dao National Park","Around Hanoi","Parks & Gardens","Tam Dao National Park, Around Hanoi",21.0277644,105.8341598
"133","Saigon South","Ho Chi Minh City","Neighbourhoods & Villages","Saigon South, Ho Chi Minh City",10.8230989,106.6296638
"134","Nghia An Hoi Quan Pagoda","Ho Chi Minh City","Religious","Nghia An Hoi Quan Pagoda, Ho Chi Minh City",10.8230989,10.8184631
"135","One Pillar Pagoda","Hanoi","Religious","One Pillar Pagoda, Hanoi",21.0358134,105.833656
"136","Valley of Love","Dalat & Around","Parks & Gardens","Valley of Love, Dalat & Around",11.9404192,108.4583132
"137","Bang Lang","Around Can Tho","Nature & Wildlife","Bang Lang, Around Can Tho",10.0451618,105.7468535
"138","Cat Co Cove","Cat Ba Island","Beaches, Islands & Waterfronts","Cat Co Cove, Cat Ba Island",20.8,106.999722
"139","Ben Duoc","Cu Chi","Historic","Ben Duoc, Cu Chi",11.142303,NA
"140","Nha Trang Cathedral","Nha Trang","Religious","Nha Trang Cathedral, Nha Trang",12.2387911,NA
"141","Huynh Thuy Le Old House","Sa Dec","Architecture","Huynh Thuy Le Old House, Sa Dec",10.2911766,NA
"142","Long Khanh Pagoda","Quy Nhon","Religious","Long Khanh Pagoda, Quy Nhon",13.7723959,NA
"143","Suoi Tranh & Suoi Da Ban","Phu Quoc Island","Lakes, Rivers & Waterfalls","Suoi Tranh & Suoi Da Ban, Phu Quoc Island",10.1785347,NA
"144","Worldwide Arms Museum","Vung Tau","Museums & Galleries","Worldwide Arms Museum, Vung Tau",10.3399599,NA
"145","St Joseph Cathedral","Hanoi","Religious","St Joseph Cathedral, Hanoi",21.0288468,NA
"146","Cai Be Floating Market","Vinh Long","Markets & Bazaars","Cai Be Floating Market, Vinh Long",NA,NA
"147","Tu Hieu Pagoda","Around Hue","Religious","Tu Hieu Pagoda, Around Hue",16.4498,107.5623501
"148","Mosques","Chau Doc","Religious","Mosques, Chau Doc",NA,NA
"149","Ho Chi Minh Trail Museum","Around Hanoi","Museums & Galleries","Ho Chi Minh Trail Museum, Around Hanoi",21.0277644,105.8341598
"150","Phuoc Lam Pagoda","Hoi An","Religious","Phuoc Lam Pagoda, Hoi An",15.8800584,108.3380469
"151","Tam Coc","Tam Coc","Other","Tam Coc, Tam Coc",NA,NA
"152","Dieu De National Pagoda","Hue","Religious","Dieu De National Pagoda, Hue",16.4498,107.5623501
"153","Nurseries","Sa Dec","Other","Nurseries, Sa Dec",10.2911766,10.2895484
"154","Tam Son Hoi Quan Pagoda","Ho Chi Minh City","Religious","Tam Son Hoi Quan Pagoda, Ho Chi Minh City",10.8230989,10.8184631
"155","Cao Dai Temple","Danang","Religious","Cao Dai Temple, Danang",16.0238326,108.2125453
"156","Ngo Mon Gate","Hue","Landmarks & Monuments","Ngo Mon Gate, Hue",16.4498,NA
"157","Binh Dinh Museum","Quy Nhon","Museums & Galleries","Binh Dinh Museum, Quy Nhon",13.7723959,13.7718755
"158","Ong Temple","Can Tho","Religious","Ong Temple, Can Tho",10.0451618,105.7468535
"159","Nam Giao Esplanade","Around Hue","Architecture","Nam Giao Esplanade, Around Hue",16.4498,107.5623501
"160","Van Thanh Mieu Temple","Vinh Long","Religious","Van Thanh Mieu Temple, Vinh Long",10.2448442,105.958865
"161","Vinh Trang Pagoda","My Tho","Religious","Vinh Trang Pagoda, My Tho",10.3765284,106.3438891
"162","Hospital Cave","Cat Ba Island","Historic","Hospital Cave, Cat Ba Island",20.8,106.999722
"163","Guangzhou Assembly Hall","Can Tho","Landmarks & Monuments","Guangzhou Assembly Hall, Can Tho",10.0451618,105.7468535
"164","Tomb of Thoai Ngoc Hau","Sam Mountain","Cemeteries, Memorials & Tombs","Tomb of Thoai Ngoc Hau, Sam Mountain",14.058324,108.277199
"165","Du Sinh Church","Dalat & Around","Religious","Du Sinh Church, Dalat & Around",11.9404192,108.4583132
"166","Halls of the Mandarins","Hue","Architecture","Halls of the Mandarins, Hue",16.4498,107.5623501
"167","Thach Dong Cave Pagoda","Ha Tien","Religious","Thach Dong Cave Pagoda, Ha Tien",NA,NA
"168","Temple","Hoi An","Other","Temple, Hoi An",15.8782019,108.3239046
"169","Revolutionary Museum","Con Dao Islands","Museums & Galleries","Revolutionary Museum, Con Dao Islands",NA,NA
"170","Dao Tien Endangered Primate Species Centre","Cat Tien National Park","Parks & Gardens","Dao Tien Endangered Primate Species Centre, Cat Tien National Park",NA,NA
"171","Ong Bon Pagoda","Ho Chi Minh City","Religious","Ong Bon Pagoda, Ho Chi Minh City",10.8230989,10.8184631
"172","Crémaillère Railway Station","Dalat","Architecture","Crémaillère Railway Station, Dalat",11.9404192,NA
"173","Truc Lam Pagoda & Cable Car ","Dalat & Around","Religious","Truc Lam Pagoda & Cable Car , Dalat & Around",10.7643715,NA
"174","Ho Chi Minh Museum","Hanoi","Museums & Galleries","Ho Chi Minh Museum, Hanoi",21.0356034,NA
"175","Marc Hoa Binh Pagoda","Around Bac Lieu","Other","Marc Hoa Binh Pagoda, Around Bac Lieu",9.2515555,NA
"176","22 Ly Tu Trong","Ho Chi Minh City","Historic","22 Ly Tu Trong, Ho Chi Minh City",10.7780942,NA
"177","Tay Phuong Pagoda","Thay & Tay Phuong Pagodas","Religious","Tay Phuong Pagoda, Thay & Tay Phuong Pagodas",5.4638158,NA
"178","Thap Doi Cham Towers","Quy Nhon","Religious","Thap Doi Cham Towers, Quy Nhon",13.7723959,13.7718755
"179","Saigon Central Mosque","Ho Chi Minh City","Religious","Saigon Central Mosque, Ho Chi Minh City",10.7762378,106.7043912
"180","Duong Dong","Phu Quoc Island","Neighbourhoods & Villages","Duong Dong, Phu Quoc Island",10.195684,103.9679332
"181","Ong Pagoda","Tra Vinh","Religious","Ong Pagoda, Tra Vinh",9.9485616,106.3419216
"182","Sao Beach","Phu Quoc Island","Beaches, Islands & Waterfronts","Sao Beach, Phu Quoc Island",10.289879,103.98402
"183","Giant Jesus","Vung Tau","Landmarks & Monuments","Giant Jesus, Vung Tau",10.4113797,107.136224
"184","President Ho Chi Minh Temple","Tra Vinh","Religious","President Ho Chi Minh Temple, Tra Vinh",18.6795848,105.6813333
"185","Muong Cultural Museum","Hoa Binh","Museums & Galleries","Muong Cultural Museum, Hoa Binh",20.6861265,105.3131185
"186","Quang Trung Museum","South-East Coast","Museums & Galleries","Quang Trung Museum, South-East Coast",NA,NA
"187","Marble Mountains","Around Danang","Other","Marble Mountains, Around Danang",16.0544068,108.2021667
"188","Ako Dhong Village","Buon Ma Thuot","Neighbourhoods & Villages","Ako Dhong Village, Buon Ma Thuot",12.6661944,NA
"189","Nui Coc Reservoir","Northeast Vietnam","Other","Nui Coc Reservoir, Northeast Vietnam",NA,NA
"190","Markets","Ha Tien","Markets & Bazaars","Markets, Ha Tien",NA,NA
"191","Other Groups","My Son","Religious","Other Groups, My Son",NA,NA
"192","Imperial Citadel","Hanoi","Historic","Imperial Citadel, Hanoi",NA,NA
"193","Bunker of General Giap","Pa Khoang Lake","Other","Bunker of General Giap, Pa Khoang Lake",NA,NA
"194","Cannon Fort","Cat Ba Island","Landmarks & Monuments","Cannon Fort, Cat Ba Island",20.8,106.999722
"195","Cu Chi Wildlife Rescue Station","Cu Chi","Nature & Wildlife","Cu Chi Wildlife Rescue Station, Cu Chi",NA,NA
"196","Thai Hoa Palace","Hue","Castles, Palaces & Mansions","Thai Hoa Palace, Hue",16.4498,107.5623501
"197","Cua Can & Ong Lan Beaches","Phu Quoc Island","Beaches, Islands & Waterfronts","Cua Can & Ong Lan Beaches, Phu Quoc Island",10.3043743,103.902799
"198","Cat Tien National Park","Cat Tien National Park","Parks & Gardens","Cat Tien National Park, Cat Tien National Park",11.419119,107.426548
"199","Buddha","Nha Trang","Landmarks & Monuments","Buddha, Nha Trang",12.2387911,109.1967488
"200","Floating Houses","Chau Doc","Architecture","Floating Houses, Chau Doc",NA,NA
"201","Kh’leang Pagoda","Soc Trang","Religious","Kh’leang Pagoda, Soc Trang",9.6102441,105.9776562
"202","Memorial House","Hanoi","Architecture","Memorial House, Hanoi",21.0277644,105.8341598
"203","Venerable Thich Quang Duc Memorial","Ho Chi Minh City","Landmarks & Monuments","Venerable Thich Quang Duc Memorial, Ho Chi Minh City",10.8230989,NA
"204","Old French Prison & Museum","Son La","Museums & Galleries","Old French Prison & Museum, Son La",NA,NA
"205","My Khe","China Beach","Beaches, Islands & Waterfronts","My Khe, China Beach",NA,NA
"206","Hang En","Phong Nha-Ke Bang National Park","Natural Landmarks","Hang En, Phong Nha-Ke Bang National Park",NA,NA
"207","Can Gio Mangrove Forest","Around Ho Chi Minh City","Other","Can Gio Mangrove Forest, Around Ho Chi Minh City",10.8230989,10.8184631
"208","Ong Ngu","Cham Islands","Religious","Ong Ngu, Cham Islands",14.058324,108.277199
"209","Van Long Nature Reserve","Van Long Nature Reserve","Parks & Gardens","Van Long Nature Reserve, Van Long Nature Reserve",NA,NA
"210","Nine Holy Cannons","Hue","Other","Nine Holy Cannons, Hue",16.4498,107.5623501
"211","Duc Thanh","Hue","Other","Duc Thanh, Hue",16.4767647,107.5974366
"212","Forbidden Purple City","Hue","Historic","Forbidden Purple City, Hue",NA,107.5623501
"213","Cham Cultural Centre","Phan Rang & Thap Cham","Museums & Galleries","Cham Cultural Centre, Phan Rang & Thap Cham",NA,108.994797
"214","Duong Long Cham Towers","Cha Ban Cham Area","Architecture","Duong Long Cham Towers, Cha Ban Cham Area",NA,NA
"215","Dong Ho","Ha Tien","Other","Dong Ho, Ha Tien",10.3829787,NA
"216","Phu Quoc National Park","Phu Quoc Island","Parks & Gardens","Phu Quoc National Park, Phu Quoc Island",10.289879,NA
"217","Ngoc Tien Monastery","Ha Tien","Religious","Ngoc Tien Monastery, Ha Tien",NA,NA
"218","Tam Bao Pagoda","Ha Tien","Religious","Tam Bao Pagoda, Ha Tien",NA,NA
"219","Military Museum","Ho Chi Minh City","Museums & Galleries","Military Museum, Ho Chi Minh City",10.9691396,10.7794222
"220","Bai Dat Doc","Con Dao Islands","Beaches, Islands & Waterfronts","Bai Dat Doc, Con Dao Islands",NA,NA
"221","Ho Chi Minh’s Stilt House","Hanoi","Historic","Ho Chi Minh’s Stilt House, Hanoi",21.0277644,105.8341598
"222","Con Son Pagoda Complex","Northeast Vietnam","Other","Con Son Pagoda Complex, Northeast Vietnam",NA,NA
"223","Dak Lak Museum","Buon Ma Thuot","Museums & Galleries","Dak Lak Museum, Buon Ma Thuot",12.6661944,108.0382475
"224","Museum of Ethnology","Northeast Vietnam","Other","Museum of Ethnology, Northeast Vietnam",21.0395559,105.798018
"225","Military Museum","Can Tho","Museums & Galleries","Military Museum, Can Tho",10.0451618,105.7468535
"226","Flag Tower","Hue","Architecture","Flag Tower, Hue",16.4498,107.5623501
"227","Huong Pagoda","Sa Dec","Religious","Huong Pagoda, Sa Dec",10.2911766,10.2895484
"228","San Chim Vam Ho Bird Sanctuary","Mekong Delta","Other","San Chim Vam Ho Bird Sanctuary, Mekong Delta",NA,NA
"229","Tran Duong House","Hoi An","Historic","Tran Duong House, Hoi An",15.8800584,NA
"230","Dien Tho Residence","Hue","Architecture","Dien Tho Residence, Hue",16.4498,NA
"231","Lung Cu","Dong Van","Landmarks & Monuments","Lung Cu, Dong Van",23.3674196,NA
"232","Bich Dong Pagoda","Tam Coc","Religious","Bich Dong Pagoda, Tam Coc",NA,NA
"233","Tam Bao Pagoda","Rach Gia","Architecture","Tam Bao Pagoda, Rach Gia",NA,NA
"234","Mua Cave","Ninh Binh Province","Natural Landmarks","Mua Cave, Ninh Binh Province",NA,105.92299
"235","Elephant Falls","Dalat & Around","Lakes, Rivers & Waterfalls","Elephant Falls, Dalat & Around",11.9404192,108.4583132
"236","Thanh Toan Bridge","Around Hue","Architecture","Thanh Toan Bridge, Around Hue",16.4498,107.5623501
"237","Temple of King Hung Vuong","Ho Chi Minh City","Religious","Temple of King Hung Vuong, Ho Chi Minh City",10.7622107,10.7563451
"238","Temples","Hoa Lu","Religious","Temples, Hoa Lu",20.2877398,105.8832264
"239","Blue Sky Crocodile Land","Long Xuyen","Farms, Workshops & Factories","Blue Sky Crocodile Land, Long Xuyen",10.3759416,105.4185406
"240","War Martyrs Monument","Cao Lanh","Landmarks & Monuments","War Martyrs Monument, Cao Lanh",NA,NA
"241","Bach Ma National Park","Bach Ma National Park","Parks & Gardens","Bach Ma National Park, Bach Ma National Park",16.1666667,107.8333333
"242","Cu Chi War History Museum","Cu Chi","Museums & Galleries","Cu Chi War History Museum, Cu Chi",NA,NA
"243","Pho Binh","Ho Chi Minh City","Historic","Pho Binh, Ho Chi Minh City",10.8568795,NA
"244","French Field Guns","Vung Tau","Landmarks & Monuments","French Field Guns, Vung Tau",10.4113797,NA
"245","Royal Fine Arts Museum","Hue","Museums & Galleries","Royal Fine Arts Museum, Hue",16.4498,NA
"246","Uncle Ho Temple","Tra Vinh","Other","Uncle Ho Temple, Tra Vinh",18.6795848,NA
"247","Chinese All-Community Assembly Hall","Hoi An","Architecture","Chinese All-Community Assembly Hall, Hoi An",15.8800584,NA
"248","Phu Binh Camp","Con Dao Islands","Architecture","Phu Binh Camp, Con Dao Islands",NA,NA
"249","Queen’s Beach","Quy Nhon","Beaches, Islands & Waterfronts","Queen’s Beach, Quy Nhon",13.7723959,13.7718755
"250","Po Nagar","Nha Trang","Religious","Po Nagar, Nha Trang",12.2387911,109.1967488
"251","Pongour Falls","Dalat & Around","Lakes, Rivers & Waterfalls","Pongour Falls, Dalat & Around",11.9404192,108.4583132
"252","Tiger Falls","Dalat & Around","Other","Tiger Falls, Dalat & Around",11.9404192,108.4583132
"253","Immaculate Conception Cathedral","Kon Tum","Religious","Immaculate Conception Cathedral, Kon Tum",14.3497403,108.0004606
"254","Lang Dinh An","Dalat & Around","Other","Lang Dinh An, Dalat & Around",12.5742821,21.0105638
"255","Cholon Jamail Mosque","Ho Chi Minh City","Religious","Cholon Jamail Mosque, Ho Chi Minh City",10.8230989,10.8184631
"256","To Mieu Temple","Hue","Religious","To Mieu Temple, Hue",16.4498,107.5623501
"257","Beach","Cham Islands","Beaches, Islands & Waterfronts","Beach, Cham Islands",NA,NA
"258","Con Thien Firebase","Demilitarised Zone (Dmz)","Historic","Con Thien Firebase, Demilitarised Zone (Dmz)",NA,NA
"259","Duyen Hai","Can Gio","Neighbourhoods & Villages","Duyen Hai, Can Gio",10.3831106,10.4092444
"260","Ton Duc Thang Museum","Ho Chi Minh City","Museums & Galleries","Ton Duc Thang Museum, Ho Chi Minh City",10.7773988,106.7063976
"261","Vietnamese Women’s Museum","Hanoi","Museums & Galleries","Vietnamese Women’s Museum, Hanoi",21.0233938,105.8516674
"262","Presidential Palace","Hanoi","Architecture","Presidential Palace, Hanoi",21.0277644,105.8341598
"263","Museum of Trading Ceramics","Hoi An","Museums & Galleries","Museum of Trading Ceramics, Hoi An",15.8800584,108.3380469
"264","Khmer Museum","Soc Trang","Museums & Galleries","Khmer Museum, Soc Trang",NA,NA
"265","Assembly Hall of the Chaozhou Chinese Congregation","Hoi An","Architecture","Assembly Hall of the Chaozhou Chinese Congregation, Hoi An",15.8800584,108.3380469
"266","Con Dao Museum","Con Dao Islands","Other","Con Dao Museum, Con Dao Islands",NA,NA
"267","Phat Lon Pagoda","Rach Gia","Religious","Phat Lon Pagoda, Rach Gia",9.9585194,NA
"268","Ben Hai River","Demilitarised Zone (Dmz)","Lakes, Rivers & Waterfalls","Ben Hai River, Demilitarised Zone (Dmz)",NA,NA
"269","Chuc Thanh Pagoda","Hoi An","Religious","Chuc Thanh Pagoda, Hoi An",15.8800584,NA
"270","Group C","My Son","Religious","Group C, My Son",15.7626486,NA
"271","Museum of Traditional Vietnamese Medicine","Ho Chi Minh City","Museums & Galleries","Museum of Traditional Vietnamese Medicine, Ho Chi Minh City",10.7761634,NA
"272","Cuc Phuong National Park","Cuc Phuong National Park","Parks & Gardens","Cuc Phuong National Park, Cuc Phuong National Park",20.3166667,NA
"273","Mubarak Mosque","Chau Doc","Religious","Mubarak Mosque, Chau Doc",NA,NA
"274","Nam Thien Nhat Tru","Around Ho Chi Minh City","Other","Nam Thien Nhat Tru, Around Ho Chi Minh City",10.8230989,10.8184631
"275","Gia Long Falls","South-West Highlands","Other","Gia Long Falls, South-West Highlands",NA,NA
"276","Cua Lo Beach","Vinh","Other","Cua Lo Beach, Vinh",18.7784704,105.7486874
"277","Vung Bau, Dai & Thom Beaches","Phu Quoc Island","Beaches, Islands & Waterfronts","Vung Bau, Dai & Thom Beaches, Phu Quoc Island",NA,NA
"278","Bay Canh","Con Dao Islands","Beaches, Islands & Waterfronts","Bay Canh, Con Dao Islands",8.6689731,106.6733441
"279","Lighthouse","Vung Tau","Landmarks & Monuments","Lighthouse, Vung Tau",10.4113797,107.136224
"280","Cau Castle","Phu Quoc Island","Religious","Cau Castle, Phu Quoc Island",10.289879,103.98402
"281","Cemeteries","Dien Bien Phu","Military","Cemeteries, Dien Bien Phu",NA,NA
"282","Botanic Gardens","Ho Chi Minh City","Parks & Gardens","Botanic Gardens, Ho Chi Minh City",NA,106.7064792
"283","Co Ha Gardens","Hue","Parks & Gardens","Co Ha Gardens, Hue",NA,NA
"284","Quan Thang House","Hoi An","Architecture","Quan Thang House, Hoi An",15.8800584,NA
"285","Bai Dram Trau","Con Dao Islands","Beaches, Islands & Waterfronts","Bai Dram Trau, Con Dao Islands",NA,NA
"286","Bao Quoc Pagoda","Hue","Religious","Bao Quoc Pagoda, Hue",16.4542212,NA
"287","Sapa Museum","Sapa","Museums & Galleries","Sapa Museum, Sapa",NA,NA
"288","Long Xuyen Catholic Church","Long Xuyen","Religious","Long Xuyen Catholic Church, Long Xuyen",10.3759416,NA
"289","Ethnographic Museum","South-West Highlands","Museums & Galleries","Ethnographic Museum, South-West Highlands",NA,NA
"290","Cuong Hoan Traditional Silk Centre","Dalat & Around","Museums & Galleries","Cuong Hoan Traditional Silk Centre, Dalat & Around",11.9404192,108.4583132
"291","National Oceanographic Museum","Nha Trang","Museums & Galleries","National Oceanographic Museum, Nha Trang",12.2074691,12.2189817
"292","Victory Monument","Buon Ma Thuot","Landmarks & Monuments","Victory Monument, Buon Ma Thuot",12.6661944,108.0382475
"293","Assembly Hall","Hoi An","Other","Assembly Hall, Hoi An",15.8778152,108.3317399
"294","Soc Trang Museum","Soc Trang","Museums & Galleries","Soc Trang Museum, Soc Trang",NA,NA
"295","Truong San Residence","Hue","Castles, Palaces & Mansions","Truong San Residence, Hue",16.4498,107.5623501
"296","Xuan Huong Lake","Dalat","Lakes, Rivers & Waterfalls","Xuan Huong Lake, Dalat",11.9411106,108.4461507
"297","Seminary & Hill-Tribe Museum","Kon Tum","Museums & Galleries","Seminary & Hill-Tribe Museum, Kon Tum",31.5623892,-89.4975669
"298","Handicraft Workshop","Hoi An","Farms, Workshops & Factories","Handicraft Workshop, Hoi An",15.8800584,108.3380469
"299","Lam Dong Museum","Dalat","Museums & Galleries","Lam Dong Museum, Dalat",11.9409803,NA
"300","People’s Committee Building","Ho Chi Minh City","Architecture","People’s Committee Building, Ho Chi Minh City",10.8230989,NA
"301","Can Tho Museum","Can Tho","Museums & Galleries","Can Tho Museum, Can Tho",10.0351667,NA
"302","Vien Minh Pagoda","Ben Tre","Architecture","Vien Minh Pagoda, Ben Tre",NA,NA
"303","Po Shanu Cham Towers","Mui Ne","Religious","Po Shanu Cham Towers, Mui Ne",NA,NA
"304","Quan Thanh Temple","Hanoi","Religious","Quan Thanh Temple, Hanoi",21.0287611,105.8364349
"305","Camp Carroll","Demilitarised Zone (Dmz)","Historic","Camp Carroll, Demilitarised Zone (Dmz)",NA,NA
"306","Ba Le Well","Hoi An","Landmarks & Monuments","Ba Le Well, Hoi An",15.8786975,108.3301279
"307","Buu Long Mountain","Around Ho Chi Minh City","Other","Buu Long Mountain, Around Ho Chi Minh City",10.8230989,10.8184631
"308","Chau Phu Temple","Chau Doc","Religious","Chau Phu Temple, Chau Doc",NA,NA
"309","Hang Pagoda","Tra Vinh","Religious","Hang Pagoda, Tra Vinh",9.933333,106.35
"310","Dong Thap Museum","Cao Lanh","Museums & Galleries","Dong Thap Museum, Cao Lanh",NA,NA
"311","White Villa","Vung Tau","Museums & Galleries","White Villa, Vung Tau",10.4113797,107.136224
"312","30 Thang 4 Park","Chau Doc","Parks & Gardens","30 Thang 4 Park, Chau Doc",NA,NA
"313","Bau Truc Village","Phan Rang & Thap Cham","Neighbourhoods & Villages","Bau Truc Village, Phan Rang & Thap Cham",11.56269,108.994797
"314","Ambassadors’ Pagoda","Hanoi","Religious","Ambassadors’ Pagoda, Hanoi",21.0277644,NA
"315","An Quang Pagoda","Ho Chi Minh City","Other","An Quang Pagoda, Ho Chi Minh City",10.8230989,NA
"316","My Son","My Son","Religious","My Son, My Son",17.1835286,NA
"317","Du Hang Pagoda","Haiphong","Religious","Du Hang Pagoda, Haiphong",20.8449115,NA
"318","Saigon Race Track","Ho Chi Minh City","Sporting Venues","Saigon Race Track, Ho Chi Minh City",10.8230989,NA
"319","Lenin Park","Hanoi","Other","Lenin Park, Hanoi",21.0309973,NA
"320","Royal Theatre","Hue","Architecture","Royal Theatre, Hue",16.4498,107.5623501
"321","Ba Be National Park","Ba Be National Park","Parks & Gardens","Ba Be National Park, Ba Be National Park",22.4112376,105.6060661
"322","Thuy Son","Marble Mountains","Natural Landmarks","Thuy Son, Marble Mountains",NA,NA
"323","Khanh Hoa Museum","Nha Trang","Museums & Galleries","Khanh Hoa Museum, Nha Trang",12.2499,109.196
"324","Tomb of Dong Khanh","Around Hue","Cemeteries, Memorials & Tombs","Tomb of Dong Khanh, Around Hue",16.4498,107.5623501
"325","Banh It Cham Towers","Cha Ban Cham Area","Architecture","Banh It Cham Towers, Cha Ban Cham Area",NA,NA
"326","Dam Doi Bird Sanctuary","Mekong Delta","Other","Dam Doi Bird Sanctuary, Mekong Delta",NA,NA
"327","Tombs of Spanish and French Soldiers","Around Danang","Other","Tombs of Spanish and French Soldiers, Around Danang",16.0544068,108.2021667
"328","Ngu Phung","Hue","Landmarks & Monuments","Ngu Phung, Hue",16.471517,107.5769609
"329","Emperor's Reading Room","Hue","Architecture","Emperor's Reading Room, Hue",16.4498,107.5623501
"330","Truc Bach Lake","Hanoi","Lakes, Rivers & Waterfalls","Truc Bach Lake, Hanoi",21.0455322,NA
"331","Linh Phuoc Pagoda","Dalat & Around","Other","Linh Phuoc Pagoda, Dalat & Around",11.9404192,NA
"332","Cua Can Beach","Phu Quoc Island","Beaches, Islands & Waterfronts","Cua Can Beach, Phu Quoc Island",10.289879,NA
"333","Ham Ho","Ham Ho Nature Reserve","Parks & Gardens","Ham Ho, Ham Ho Nature Reserve",NA,NA
"334","Opera House","Ho Chi Minh City","Theatres, Concert Halls & Cinemas","Opera House, Ho Chi Minh City",10.8230989,10.8184631
"335","San Art","Ho Chi Minh City","Museums & Galleries","San Art, Ho Chi Minh City",10.8230989,10.8184631
"336","Truc Lam Pagoda","Dalat & Around","Other","Truc Lam Pagoda, Dalat & Around",11.9404192,108.4583132
"337","Craft Markets","Son La","Markets & Bazaars","Craft Markets, Son La",21.3270341,103.9141288
"338","Dray Sap & Dray Nur Falls","Dray Sap & Dray Nur Falls","Lakes, Rivers & Waterfalls","Dray Sap & Dray Nur Falls, Dray Sap & Dray Nur Falls",12.5843164,107.9746652
"339","Son My Memorial","Son My (My Lai)","Military","Son My Memorial, Son My (My Lai)",NA,NA
"340","Assembly Hall of the Hainan Chinese Congregation","Hoi An","Architecture","Assembly Hall of the Hainan Chinese Congregation, Hoi An",15.8800584,108.3380469
"341","Ho Chi Minh Museum","Pleiku","Museums & Galleries","Ho Chi Minh Museum, Pleiku",10.8230989,106.6296638
"342","Long Thanh Gallery","Nha Trang","Museums & Galleries","Long Thanh Gallery, Nha Trang",12.2387911,109.1967488
"343","Ho Chi Minh Museum","Danang","Museums & Galleries","Ho Chi Minh Museum, Danang",16.0544068,NA
"344","Tran Quoc Pagoda","Hanoi","Religious","Tran Quoc Pagoda, Hanoi",21.0277644,105.8341598
"345","Nha Tu Phu Quoc","Phu Quoc Island","Landmarks & Monuments","Nha Tu Phu Quoc, Phu Quoc Island",10.289879,103.98402
"346","Old Town","Hoi An","Neighbourhoods & Villages","Old Town, Hoi An",15.8800584,108.3380469
"347","Vam Sat","Can Gio","Parks & Gardens","Vam Sat, Can Gio",10.5366922,106.7670518
"348","Datanla Falls","Dalat & Around","Lakes, Rivers & Waterfalls","Datanla Falls, Dalat & Around",11.9404192,108.4583132
"349","Danang Cathedral","Danang","Religious","Danang Cathedral, Danang",16.0657273,108.2198893
"350","Tay Ho Pagoda","Hanoi","Religious","Tay Ho Pagoda, Hanoi",21.0277644,105.8341598
"351","Chien Dan","Chien Dan","Architecture","Chien Dan, Chien Dan",NA,NA
"352","Endangered Primate Rescue Center","Cuc Phuong National Park","Natural Parks & Forests","Endangered Primate Rescue Center, Cuc Phuong National Park",NA,NA
"353","Cho Quan Church","Ho Chi Minh City","Religious","Cho Quan Church, Ho Chi Minh City",NA,106.6815431
"354","Bamboo Lagoon","Con Dao Islands","Other","Bamboo Lagoon, Con Dao Islands",NA,NA
"355","Bai Tu Long National Park","Halong Bay","Other","Bai Tu Long National Park, Halong Bay",NA,NA
"356","Yok Don National Park","Yok Don National Park","Parks & Gardens","Yok Don National Park, Yok Don National Park",NA,NA
"357","Hung Vuong Roundabout","Soc Trang","Landmarks & Monuments","Hung Vuong Roundabout, Soc Trang",NA,NA
"358","Coconut Tree Prison","Phu Quoc Island","Cemeteries, Memorials & Tombs","Coconut Tree Prison, Phu Quoc Island",10.289879,103.98402
"359","Crocodile Swamp","Cat Tien National Park","Lakes, Rivers & Waterfalls","Crocodile Swamp, Cat Tien National Park",NA,NA
"360","Diep Dong Nguyen House","Hoi An","Architecture","Diep Dong Nguyen House, Hoi An",15.8800584,108.3380469
"361","National School","Hue","Architecture","National School, Hue",16.4498,107.5623501
"362","Tomb of Gia Long","Around Hue","Cemeteries, Memorials & Tombs","Tomb of Gia Long, Around Hue",16.4498,107.5623501
"363","Ban Gioc Waterfall","Ban Gioc Waterfall & Nguom Ngao Cave","Lakes, Rivers & Waterfalls","Ban Gioc Waterfall, Ban Gioc Waterfall & Nguom Ngao Cave",NA,NA
"364","Co Loa Citadel","Co Loa Citadel","Historic","Co Loa Citadel, Co Loa Citadel",NA,105.8701316
"365","Assembly Hall of the Cantonese Chinese Congregation","Hoi An","Architecture","Assembly Hall of the Cantonese Chinese Congregation, Hoi An",NA,108.3380469
"366","Ong Dung Bay","Con Dao Islands","Beaches, Islands & Waterfronts","Ong Dung Bay, Con Dao Islands",14.058324,108.277199
"367","Museum of Sa Huynh Culture & Museum of the Revolution","Hoi An","Museums & Galleries","Museum of Sa Huynh Culture & Museum of the Revolution, Hoi An",15.8247118,15.7629992
"368","Dalat Cathedral","Dalat","Architecture","Dalat Cathedral, Dalat",11.9404192,NA
"369","Museum of Folklore in Hoi An","Hoi An","Museums & Galleries","Museum of Folklore in Hoi An, Hoi An",15.8800584,NA
"370","Ma Thien Lanh Bridge","Con Dao Islands","Architecture","Ma Thien Lanh Bridge, Con Dao Islands",42.4072107,NA
"371","Van Lan","Tam Coc","Neighbourhoods & Villages","Van Lan, Tam Coc",NA,NA
"372","Bai Bau","Bai Bau Beach","Beaches, Islands & Waterfronts","Bai Bau, Bai Bau Beach",NA,NA
"373","Munirensay Pagoda","Can Tho","Religious","Munirensay Pagoda, Can Tho",10.0451618,105.7468535
"374","My An & Non Nuoc","China Beach","Beaches, Islands & Waterfronts","My An & Non Nuoc, China Beach",34.274247,16.4098995
"375","Mr De’s Foundry","Hue","Other","Mr De’s Foundry, Hue",16.4498,107.5623501
"376","The Rockpile","Demilitarised Zone (Dmz)","Historic","The Rockpile, Demilitarised Zone (Dmz)",NA,NA
"377","Waterfalls","Dalat & Around","Lakes, Rivers & Waterfalls","Waterfalls, Dalat & Around",11.8791121,108.4732207
"378","Linh Son Pagoda","Dalat","Architecture","Linh Son Pagoda, Dalat",11.9404192,108.4583132
"379","Bai Loi Voi","Con Dao Islands","Beaches, Islands & Waterfronts","Bai Loi Voi, Con Dao Islands",NA,NA
"380","Coc Ly Market","Bac Ha","Markets & Bazaars","Coc Ly Market, Bac Ha",NA,NA
"381","Turtle Conservation Center","Cuc Phuong National Park","Natural Parks & Forests","Turtle Conservation Center, Cuc Phuong National Park",NA,NA
"382","General Museum Complex","Hue","Museums & Galleries","General Museum Complex, Hue",16.4498,107.5623501
"383","Dalat Flower Gardens","Dalat","Parks & Gardens","Dalat Flower Gardens, Dalat",11.9404192,108.4583132
"384","Xo Viet Nghe Tinh Museum","Vinh","Museums & Galleries","Xo Viet Nghe Tinh Museum, Vinh",18.6795848,105.6813333
"385","Muong Thanh Bridge","Dien Bien Phu","Architecture","Muong Thanh Bridge, Dien Bien Phu",NA,NA
"386","Ca Mau Market","Ca Mau","Markets & Bazaars","Ca Mau Market, Ca Mau",36.778261,-119.4179324
"387","Lung Phin Market","Bac Ha","Markets & Bazaars","Lung Phin Market, Bac Ha",NA,NA
"388","My Son Museum","My Son","Museums & Galleries","My Son Museum, My Son",NA,NA
"389","Phung Hung Old House","Hoi An","Architecture","Phung Hung Old House, Hoi An",15.8800584,108.3380469
"390","Citadel","Vinh","Other","Citadel, Vinh",18.6795848,105.6813333
"391","Cathedral","North-Central Vietnam","Other","Cathedral, North-Central Vietnam",NA,NA
"392","Coi Nguon Museum","Phu Quoc Island","Museums & Galleries","Coi Nguon Museum, Phu Quoc Island",NA,103.98402
"393","Tomb of Thieu Tri","Around Hue","Cemeteries, Memorials & Tombs","Tomb of Thieu Tri, Around Hue",NA,NA
"394","Ho Chi Minh Museum","Hue","Museums & Galleries","Ho Chi Minh Museum, Hue",NA,107.5815797
"395","Leper Hospital Grounds","Quy Nhon","Other","Leper Hospital Grounds, Quy Nhon",13.7723959,13.7718755
"396","Cho Moi","Long Xuyen","Neighbourhoods & Villages","Cho Moi, Long Xuyen",10.5041104,105.5007057
"397","Dambri Falls","Bao Loc","Lakes, Rivers & Waterfalls","Dambri Falls, Bao Loc",NA,NA
"398","Mai Loc Gallery","Nha Trang","Museums & Galleries","Mai Loc Gallery, Nha Trang",12.2387911,109.1967488
"399","Galerie Quynh","Ho Chi Minh City","Museums & Galleries","Galerie Quynh, Ho Chi Minh City",10.8230989,10.8184631
"400","Khem Beach","Phu Quoc Island","Beaches, Islands & Waterfronts","Khem Beach, Phu Quoc Island",10.289879,103.98402
"401","Hoi An Museum of History & Culture","Hoi An","Museums & Galleries","Hoi An Museum of History & Culture, Hoi An",15.8800584,108.3380469
"402","Phac Hat Pagoda","Hoi An","Religious","Phac Hat Pagoda, Hoi An",15.8800584,108.3380469
"403","Dam Wall","Hoa Binh","Landmarks & Monuments","Dam Wall, Hoa Binh",20.6861265,105.3131185
"404","Ben Tre Museum","Ben Tre","Museums & Galleries","Ben Tre Museum, Ben Tre",NA,NA
"405","Do Dien Khanh Gallery","Nha Trang","Museums & Galleries","Do Dien Khanh Gallery, Nha Trang",NA,NA
"406","Tran Hung Dao Temple","Ho Chi Minh City","Religious","Tran Hung Dao Temple, Ho Chi Minh City",10.7908391,106.6947368
"407","Bo Bla Waterfall","South-West Highlands","Other","Bo Bla Waterfall, South-West Highlands",NA,NA
"408","Dakrong Bridge","Demilitarised Zone (Dmz)","Architecture","Dakrong Bridge, Demilitarised Zone (Dmz)",NA,NA
"409","Den Kiep Bac","Northeast Vietnam","Other","Den Kiep Bac, Northeast Vietnam",21.1510962,106.3274323
"410","Lookout Tower","Son La","Landmarks & Monuments","Lookout Tower, Son La",21.3270341,103.9141288
"411","Chua Dat Set","Soc Trang","Other","Chua Dat Set, Soc Trang",NA,NA
"412","Statue of Me Suot","Dong Hoi","Other","Statue of Me Suot, Dong Hoi",21.0809178,21.0120181
"413","Kien Giang Museum","Rach Gia","Museums & Galleries","Kien Giang Museum, Rach Gia",NA,NA
"414","Khmer Minority People’s Museum","Tra Vinh","Museums & Galleries","Khmer Minority People’s Museum, Tra Vinh",18.6795848,105.6813333
"415","My Tho Market","My Tho","Markets & Bazaars","My Tho Market, My Tho",10.3765284,106.3438891
"416","Night Market","Lang Son","Markets & Bazaars","Night Market, Lang Son",NA,NA
"417","Ong Met Pagoda","Tra Vinh","Architecture","Ong Met Pagoda, Tra Vinh",18.6795848,105.6813333
"418","Ong Lan Beach","Phu Quoc Island","Beaches, Islands & Waterfronts","Ong Lan Beach, Phu Quoc Island",10.289879,103.98402
"419","Tang Tau Lake","Hue","Lakes, Rivers & Waterfalls","Tang Tau Lake, Hue",16.4498,107.5623501
"420","Stone monument","Vinh","Other","Stone monument, Vinh",18.6795848,105.6813333
"421","Thu Thien","South-East Coast","Other","Thu Thien, South-East Coast",NA,NA
"422","Cable-Car Station","Dalat & Around","Other","Cable-Car Station, Dalat & Around",11.9404192,108.4583132
"423","Research Library","Ho Chi Minh City","Other","Research Library, Ho Chi Minh City",10.8230989,10.8184631
"424","Tre Lon","Con Dao Islands","Beaches, Islands & Waterfronts","Tre Lon, Con Dao Islands",8.7081257,106.5392569
"425","Phap Lam Pagoda","Danang","Religious","Phap Lam Pagoda, Danang",16.0544068,108.2021667
"426","Tu Ton Rose Garden","Sa Dec","Other","Tu Ton Rose Garden, Sa Dec",10.2911766,10.2895484
"427","Cao Dai Temple","Sa Dec","Religious","Cao Dai Temple, Sa Dec",10.2911766,NA
"428","Ankroët Falls","Dalat & Around","Lakes, Rivers & Waterfalls","Ankroët Falls, Dalat & Around",11.9404192,108.4583132
"429","Museum","Hoa Binh","Museums & Galleries","Museum, Hoa Binh",10.0351667,10.0356104
"430","Tam An Pagoda","Quy Nhon","Religious","Tam An Pagoda, Quy Nhon",13.7723959,13.7718755
"431","Cam Pho Temple","Hoi An","Architecture","Cam Pho Temple, Hoi An",15.8782019,108.3239046
"432","Vong Beach","Phu Quoc Island","Beaches, Islands & Waterfronts","Vong Beach, Phu Quoc Island",10.289879,103.98402
"433","Canh Tien","South-East Coast","Other","Canh Tien, South-East Coast",NA,NA
"434","Gia Lai Museum","Pleiku","Other","Gia Lai Museum, Pleiku",NA,NA
"435","Bai An Hai","Con Dao Islands","Beaches, Islands & Waterfronts","Bai An Hai, Con Dao Islands",NA,NA
"436","Thai Giang Pho Waterfall","Bac Ha","Lakes, Rivers & Waterfalls","Thai Giang Pho Waterfall, Bac Ha",14.058324,108.277199
"437","Gougah Falls","Dalat & Around","Lakes, Rivers & Waterfalls","Gougah Falls, Dalat & Around",11.9404192,108.4583132
"438","Dong Xuan Market","Hanoi","Other","Dong Xuan Market, Hanoi",21.038164,NA
"439","Cao Dai Temple","Ca Mau","Religious","Cao Dai Temple, Ca Mau",NA,NA
"440","Bao Tang Quang Tri","Dong Ha","Museums & Galleries","Bao Tang Quang Tri, Dong Ha",16.8515799,107.179001
"441","Sapa Radio Tower","Sapa","Architecture","Sapa Radio Tower, Sapa",NA,NA
"442","Hoa Binh Museum","Hoa Binh","Other","Hoa Binh Museum, Hoa Binh",20.6861265,105.3131185
"443","Buu Quang Pagoda","Sa Dec","Religious","Buu Quang Pagoda, Sa Dec",10.2911766,10.2895484
"444","Quang Cong Pagoda","Phan Rang & Thap Cham","Architecture","Quang Cong Pagoda, Phan Rang & Thap Cham",11.56269,108.994797
"445","Ho Chi Minh Museum","Hang Pac Bo (Water-Wheel Cave)","Other","Ho Chi Minh Museum, Hang Pac Bo (Water-Wheel Cave)",10.8230989,106.6296638
"446","Navy Museum","Haiphong","Museums & Galleries","Navy Museum, Haiphong",20.8449115,106.6880841
"447","Cao Dai Temple","Rach Gia","Religious","Cao Dai Temple, Rach Gia",NA,NA
"448","Couvent des Oiseaux","Dalat","Other","Couvent des Oiseaux, Dalat",11.9404192,108.4583132
"449","Phu Loc","Central Vietnam","Other","Phu Loc, Central Vietnam",NA,NA
"450","Binh Lam","South-East Coast","Other","Binh Lam, South-East Coast",NA,NA
"451","Cao Dai Temple","My Tho","Religious","Cao Dai Temple, My Tho",10.3765284,NA
"452","Quang Duc Gate","Hue","Landmarks & Monuments","Quang Duc Gate, Hue",16.4656936,107.5786024
"453","Nine Holy Cannons","Hue","Other","Nine Holy Cannons, Hue",16.4498,107.5623501
"454","Nhi Thanh Cave","Lang Son","Natural Landmarks","Nhi Thanh Cave, Lang Son",21.8563705,106.6291304
"455","Can Chanh Palace","Hue","Historic","Can Chanh Palace, Hue",16.4498,107.5623501
"456","Con Son Pagoda","Con Son & Den Kiep Bac","Religious","Con Son Pagoda, Con Son & Den Kiep Bac",NA,NA
"457","Duong Dong Market","Phu Quoc Island","Markets & Bazaars","Duong Dong Market, Phu Quoc Island",10.289879,103.98402
"458","Vuong Palace","From Tam Son to Dong Van","Architecture","Vuong Palace, From Tam Son to Dong Van",NA,NA
"459","Thai Binh Market","Ho Chi Minh City","Markets & Bazaars","Thai Binh Market, Ho Chi Minh City",NA,10.8184631
"460","Vinh’s Citadel Left Gate","Vinh","Landmarks & Monuments","Vinh’s Citadel Left Gate, Vinh",NA,105.6813333
"461","U-Minh Forest","U-Minh Forest","Natural Parks & Forests","U-Minh Forest, U-Minh Forest",NA,NA
"462","Uncle Ho Museum","Hang Pac Bo (Water-Wheel Cave)","Museums & Galleries","Uncle Ho Museum, Hang Pac Bo (Water-Wheel Cave)",NA,NA
"463","Tien Son Cave","Phong Nha-Ke Bang National Park","Other","Tien Son Cave, Phong Nha-Ke Bang National Park",NA,NA
"464","Tam Thanh Cave","Lang Son","Natural Landmarks","Tam Thanh Cave, Lang Son",NA,NA
"465","Ke Ga Lighthouse","South-East Coast","Landmarks & Monuments","Ke Ga Lighthouse, South-East Coast",NA,NA
"466","Nine Holy Cannons","Hue","Other","Nine Holy Cannons, Hue",16.4498,107.5623501
"467","Ngan Gate","Hue","Landmarks & Monuments","Ngan Gate, Hue",16.4498,107.5623501
"468","One Pillar Pagoda of Thu Duc","One Pillar Pagoda","Religious","One Pillar Pagoda of Thu Duc, One Pillar Pagoda",NA,NA
"469","Vinh’s Citadel Front Gate","Vinh","Landmarks & Monuments","Vinh’s Citadel Front Gate, Vinh",18.6795848,105.6813333
"470","Dien Bien Phu Cemetery","Dien Bien Phu","Military","Dien Bien Phu Cemetery, Dien Bien Phu",NA,NA
"471","Suoi Tranh","Phu Quoc Island","Lakes, Rivers & Waterfalls","Suoi Tranh, Phu Quoc Island",10.289879,103.98402
"472","Thung Nham","Ninh Binh Province","Lakes, Rivers & Waterfalls","Thung Nham, Ninh Binh Province",20.218318,105.8924586
"473","Ba Na","Ba Na Hill Station","Parks & Gardens","Ba Na, Ba Na Hill Station",16.0254034,108.0306913
"474","Crescent","Ho Chi Minh City","Beaches, Islands & Waterfronts","Crescent, Ho Chi Minh City",10.7270195,106.7200912
"475","Tourist Train","Cat Ba Island","Other","Tourist Train, Cat Ba Island",20.8,106.999722
"476","Cat Cat","Sapa","Neighbourhoods & Villages","Cat Cat, Sapa",22.3301416,NA
"477","Chua Bai Dinh","Ninh Binh Province","Religious","Chua Bai Dinh, Ninh Binh Province",20.2755224,NA
"478","Fairy Spring","Around Nha Trang","Other","Fairy Spring, Around Nha Trang",12.2387911,NA
"479","Dai Beach","Phu Quoc Island","Beaches, Islands & Waterfronts","Dai Beach, Phu Quoc Island",10.289879,NA
"480","Chapel","Nui Son Tra (Monkey Mountain)","Religious","Chapel, Nui Son Tra (Monkey Mountain)",NA,NA
"481","Hon Mieu Aquarium","Nha Trang","Nature & Wildlife","Hon Mieu Aquarium, Nha Trang",NA,109.1967488
"482","Kiep Bac Temple","Con Son & Den Kiep Bac","Religious","Kiep Bac Temple, Con Son & Den Kiep Bac",NA,NA
"483","Linh Ung","Nui Son Tra (Monkey Mountain)","Landmarks & Monuments","Linh Ung, Nui Son Tra (Monkey Mountain)",NA,NA
"484","Mui Nai","Mui Nai","Beaches, Islands & Waterfronts","Mui Nai, Mui Nai",NA,NA
"485","War Memorial","Cao Bang","Landmarks & Monuments","War Memorial, Cao Bang",22.635689,106.2522143
"486","Vung Bau Beach","Phu Quoc Island","Beaches, Islands & Waterfronts","Vung Bau Beach, Phu Quoc Island",10.289879,103.98402
"487","Duyen Hai War Memorial","Can Gio","Military","Duyen Hai War Memorial, Can Gio",NA,NA
"488","Pilgrimage Spots","Kim Lien","Historic","Pilgrimage Spots, Kim Lien",NA,NA
"489","Sanctuary","Phoenix Island","Historic","Sanctuary, Phoenix Island",32.9087367,-97.584191
"490","Thom Beach","Phu Quoc Island","Beaches, Islands & Waterfronts","Thom Beach, Phu Quoc Island",10.289879,103.98402
"491","Night Market","Ha Tien","Markets & Bazaars","Night Market, Ha Tien",NA,NA
"492","Night Market","Con Dao Islands","Markets & Bazaars","Night Market, Con Dao Islands",NA,NA
"493","French War Memorial","Dien Bien Phu","Military","French War Memorial, Dien Bien Phu",NA,NA
"494","Fish Market","Dong Hoi","Markets & Bazaars","Fish Market, Dong Hoi",NA,21.0120181
"495","Tam Toa Church","Dong Hoi","Religious","Tam Toa Church, Dong Hoi",21.0809178,21.0120181
"496","Thai To Mieu Temple Complex","Hue","Other","Thai To Mieu Temple Complex, Hue",16.4498,107.5623501
"497","University of Arts","Hue","Architecture","University of Arts, Hue",16.4781067,107.5741553
"498","Vinh’s Citadel Right Gate","Vinh","Landmarks & Monuments","Vinh’s Citadel Right Gate, Vinh",18.6795848,NA
"499","Ta Phin Village","Sapa","Neighbourhoods & Villages","Ta Phin Village, Sapa",NA,NA
"500","Trang An","Ninh Binh Province","Natural Landmarks","Trang An, Ninh Binh Province",20.2594745,NA
"501","Phong Nha-Ke Bang National Park","Phong Nha-Ke Bang National Park","Parks & Gardens","Phong Nha-Ke Bang National Park, Phong Nha-Ke Bang National Park",NA,NA
"502","Dolphin","Vung Tau","Other","Dolphin, Vung Tau",10.4113797,107.136224
"503","Ho Chi Minh Statue","Pleiku","Landmarks & Monuments","Ho Chi Minh Statue, Pleiku",10.8230989,106.6296638
